CCSDS_OMM_VERS = 2.0
CREATION_DATE  = 
ORIGINATOR     = 

OBJECT_NAME    = UNKNOWN
OBJECT_ID      = 
CENTER_NAME    = EARTH
REF_FRAME      = TEME
TIME_SYSTEM    = UTC
MEAN_ELEMENT_THEORY = SGP/SGP4

EPOCH          = 2025-11-04T09:55:25.825440
MEAN_MOTION    = 13.01485432
ECCENTRICITY   = .00328347
INCLINATION    = 90.2400
RA_OF_ASC_NODE = 359.0223
ARG_OF_PERICENTER = 233.1288
MEAN_ANOMALY   = 126.6824

EPHEMERIS_TYPE = 0
CLASSIFICATION_TYPE = U
NORAD_CAT_ID   = 270326
ELEMENT_SET_NO = 999
REV_AT_EPOCH   = 25955
BSTAR          = .58377363E-4
MEAN_MOTION_DOT = .25E-6
MEAN_MOTION_DDOT = 0

CCSDS_OMM_VERS = 2.0
CREATION_DATE  = 
ORIGINATOR     = 

OBJECT_NAME    = UNKNOWN
OBJECT_ID      = 
CENTER_NAME    = EARTH
REF_FRAME      = TEME
TIME_SYSTEM    = UTC
MEAN_ELEMENT_THEORY = SGP/SGP4

EPOCH          = 2025-10-29T23:24:15.423264
MEAN_MOTION    = 12.95797308
ECCENTRICITY   = .00273184
INCLINATION    = 90.2905
RA_OF_ASC_NODE = 28.2282
ARG_OF_PERICENTER = 6.0188
MEAN_ANOMALY   = 354.1255

EPHEMERIS_TYPE = 0
CLASSIFICATION_TYPE = U
NORAD_CAT_ID   = 270327
ELEMENT_SET_NO = 999
REV_AT_EPOCH   = 23642
BSTAR          = .92532864E-4
MEAN_MOTION_DOT = .33E-6
MEAN_MOTION_DDOT = 0

CCSDS_OMM_VERS = 2.0
CREATION_DATE  = 
ORIGINATOR     = 

OBJECT_NAME    = UNKNOWN
OBJECT_ID      = 
CENTER_NAME    = EARTH
REF_FRAME      = TEME
TIME_SYSTEM    = UTC
MEAN_ELEMENT_THEORY = SGP/SGP4

EPOCH          = 2025-10-27T06:17:06.311040
MEAN_MOTION    = 12.95078900
ECCENTRICITY   = .01781553
INCLINATION    = 63.4565
RA_OF_ASC_NODE = 139.6893
ARG_OF_PERICENTER = 5.4664
MEAN_ANOMALY   = 354.8227

EPHEMERIS_TYPE = 0
CLASSIFICATION_TYPE = U
NORAD_CAT_ID   = 270328
ELEMENT_SET_NO = 999
REV_AT_EPOCH   = 25660
BSTAR          = .1475884E-2
MEAN_MOTION_DOT = .367E-5
MEAN_MOTION_DDOT = 0

CCSDS_OMM_VERS = 2.0
CREATION_DATE  = 
ORIGINATOR     = 

OBJECT_NAME    = UNKNOWN
OBJECT_ID      = 
CENTER_NAME    = EARTH
REF_FRAME      = TEME
TIME_SYSTEM    = UTC
MEAN_ELEMENT_THEORY = SGP/SGP4

EPOCH          = 2025-11-03T15:36:00.530496
MEAN_MOTION    = 14.36909479
ECCENTRICITY   = .00021356
INCLINATION    = 86.3999
RA_OF_ASC_NODE = 23.5039
ARG_OF_PERICENTER = 102.8465
MEAN_ANOMALY   = 257.2971

EPHEMERIS_TYPE = 0
CLASSIFICATION_TYPE = U
NORAD_CAT_ID   = 270329
ELEMENT_SET_NO = 999
REV_AT_EPOCH   = 24933
BSTAR          = .22511062E-3
MEAN_MOTION_DOT = .685E-5
MEAN_MOTION_DDOT = 0

CCSDS_OMM_VERS = 2.0
CREATION_DATE  = 
ORIGINATOR     = 

OBJECT_NAME    = UNKNOWN
OBJECT_ID      = 
CENTER_NAME    = EARTH
REF_FRAME      = TEME
TIME_SYSTEM    = UTC
MEAN_ELEMENT_THEORY = SGP/SGP4

EPOCH          = 2025-11-02T18:24:24.776352
MEAN_MOTION    = 13.41694818
ECCENTRICITY   = .00384075
INCLINATION    = 100.3061
RA_OF_ASC_NODE = 119.6889
ARG_OF_PERICENTER = 40.3850
MEAN_ANOMALY   = 320.0118

EPHEMERIS_TYPE = 0
CLASSIFICATION_TYPE = U
NORAD_CAT_ID   = 270330
ELEMENT_SET_NO = 999
REV_AT_EPOCH   = 24211
BSTAR          = .33103335E-2
MEAN_MOTION_DOT = .1811E-4
MEAN_MOTION_DDOT = 0

CCSDS_OMM_VERS = 2.0
CREATION_DATE  = 
ORIGINATOR     = 

OBJECT_NAME    = UNKNOWN
OBJECT_ID      = 
CENTER_NAME    = EARTH
REF_FRAME      = TEME
TIME_SYSTEM    = UTC
MEAN_ELEMENT_THEORY = SGP/SGP4

EPOCH          = 2025-11-03T03:34:13.951776
MEAN_MOTION    = 14.27775401
ECCENTRICITY   = .02105855
INCLINATION    = 97.7203
RA_OF_ASC_NODE = 84.7303
ARG_OF_PERICENTER = 35.9131
MEAN_ANOMALY   = 325.5999

EPHEMERIS_TYPE = 0
CLASSIFICATION_TYPE = U
NORAD_CAT_ID   = 270333
ELEMENT_SET_NO = 999
REV_AT_EPOCH   = 4196
BSTAR          = .13851799E-2
MEAN_MOTION_DOT = .4297E-4
MEAN_MOTION_DDOT = 0

CCSDS_OMM_VERS = 2.0
CREATION_DATE  = 
ORIGINATOR     = 

OBJECT_NAME    = UNKNOWN
OBJECT_ID      = 
CENTER_NAME    = EARTH
REF_FRAME      = TEME
TIME_SYSTEM    = UTC
MEAN_ELEMENT_THEORY = SGP/SGP4

EPOCH          = 2025-11-03T18:13:06.278016
MEAN_MOTION    = 14.13739937
ECCENTRICITY   = .01835538
INCLINATION    = 86.4540
RA_OF_ASC_NODE = 313.4053
ARG_OF_PERICENTER = 310.4810
MEAN_ANOMALY   = 48.0497

EPHEMERIS_TYPE = 0
CLASSIFICATION_TYPE = U
NORAD_CAT_ID   = 270334
ELEMENT_SET_NO = 999
REV_AT_EPOCH   = 27614
BSTAR          = .42260118E-2
MEAN_MOTION_DOT = .9404E-4
MEAN_MOTION_DDOT = 0

CCSDS_OMM_VERS = 2.0
CREATION_DATE  = 
ORIGINATOR     = 

OBJECT_NAME    = UNKNOWN
OBJECT_ID      = 
CENTER_NAME    = EARTH
REF_FRAME      = TEME
TIME_SYSTEM    = UTC
MEAN_ELEMENT_THEORY = SGP/SGP4

EPOCH          = 2025-10-19T09:31:49.433088
MEAN_MOTION    = 14.14448214
ECCENTRICITY   = .00727618
INCLINATION    = 66.6611
RA_OF_ASC_NODE = 341.8640
ARG_OF_PERICENTER = 109.2891
MEAN_ANOMALY   = 251.6087

EPHEMERIS_TYPE = 0
CLASSIFICATION_TYPE = U
NORAD_CAT_ID   = 270335
ELEMENT_SET_NO = 999
REV_AT_EPOCH   = 22948
BSTAR          = .54268803E-3
MEAN_MOTION_DOT = .985E-5
MEAN_MOTION_DDOT = 0

CCSDS_OMM_VERS = 2.0
CREATION_DATE  = 
ORIGINATOR     = 

OBJECT_NAME    = UNKNOWN
OBJECT_ID      = 
CENTER_NAME    = EARTH
REF_FRAME      = TEME
TIME_SYSTEM    = UTC
MEAN_ELEMENT_THEORY = SGP/SGP4

EPOCH          = 2025-11-01T11:47:03.876576
MEAN_MOTION    = 14.25295187
ECCENTRICITY   = .00111975
INCLINATION    = 81.2853
RA_OF_ASC_NODE = 228.7272
ARG_OF_PERICENTER = 47.9733
MEAN_ANOMALY   = 312.2398

EPHEMERIS_TYPE = 0
CLASSIFICATION_TYPE = U
NORAD_CAT_ID   = 270336
ELEMENT_SET_NO = 999
REV_AT_EPOCH   = 22957
BSTAR          = .2034913E-2
MEAN_MOTION_DOT = .4805E-4
MEAN_MOTION_DDOT = 0

CCSDS_OMM_VERS = 2.0
CREATION_DATE  = 
ORIGINATOR     = 

OBJECT_NAME    = UNKNOWN
OBJECT_ID      = 
CENTER_NAME    = EARTH
REF_FRAME      = TEME
TIME_SYSTEM    = UTC
MEAN_ELEMENT_THEORY = SGP/SGP4

EPOCH          = 2025-10-26T21:01:17.197536
MEAN_MOTION    = 13.04521446
ECCENTRICITY   = .00287021
INCLINATION    = 90.1365
RA_OF_ASC_NODE = 4.3930
ARG_OF_PERICENTER = 16.3785
MEAN_ANOMALY   = 343.8261

EPHEMERIS_TYPE = 0
CLASSIFICATION_TYPE = U
NORAD_CAT_ID   = 270337
ELEMENT_SET_NO = 999
REV_AT_EPOCH   = 21191
BSTAR          = .39768774E-2
MEAN_MOTION_DOT = .1286E-4
MEAN_MOTION_DDOT = 0

CCSDS_OMM_VERS = 2.0
CREATION_DATE  = 
ORIGINATOR     = 

OBJECT_NAME    = UNKNOWN
OBJECT_ID      = 
CENTER_NAME    = EARTH
REF_FRAME      = TEME
TIME_SYSTEM    = UTC
MEAN_ELEMENT_THEORY = SGP/SGP4

EPOCH          = 2025-11-02T03:38:48.542208
MEAN_MOTION    = 13.83986686
ECCENTRICITY   = .01473012
INCLINATION    = 99.0884
RA_OF_ASC_NODE = 264.9983
ARG_OF_PERICENTER = 283.1980
MEAN_ANOMALY   = 75.2778

EPHEMERIS_TYPE = 0
CLASSIFICATION_TYPE = U
NORAD_CAT_ID   = 270338
ELEMENT_SET_NO = 999
REV_AT_EPOCH   = 22148
BSTAR          = .88060352E-3
MEAN_MOTION_DOT = .102E-4
MEAN_MOTION_DDOT = 0

CCSDS_OMM_VERS = 2.0
CREATION_DATE  = 
ORIGINATOR     = 

OBJECT_NAME    = UNKNOWN
OBJECT_ID      = 
CENTER_NAME    = EARTH
REF_FRAME      = TEME
TIME_SYSTEM    = UTC
MEAN_ELEMENT_THEORY = SGP/SGP4

EPOCH          = 2025-11-03T05:29:21.284448
MEAN_MOTION    = 12.16102564
ECCENTRICITY   = .08525996
INCLINATION    = 83.2202
RA_OF_ASC_NODE = 301.4990
ARG_OF_PERICENTER = 351.4113
MEAN_ANOMALY   = 7.3107

EPHEMERIS_TYPE = 0
CLASSIFICATION_TYPE = U
NORAD_CAT_ID   = 270339
ELEMENT_SET_NO = 999
REV_AT_EPOCH   = 19744
BSTAR          = .28692276E-2
MEAN_MOTION_DOT = .897E-5
MEAN_MOTION_DDOT = 0

CCSDS_OMM_VERS = 2.0
CREATION_DATE  = 
ORIGINATOR     = 

OBJECT_NAME    = UNKNOWN
OBJECT_ID      = 
CENTER_NAME    = EARTH
REF_FRAME      = TEME
TIME_SYSTEM    = UTC
MEAN_ELEMENT_THEORY = SGP/SGP4

EPOCH          = 2025-10-31T10:22:23.368224
MEAN_MOTION    = 13.83693368
ECCENTRICITY   = .01448247
INCLINATION    = 98.8156
RA_OF_ASC_NODE = 184.5062
ARG_OF_PERICENTER = 239.7196
MEAN_ANOMALY   = 118.9562

EPHEMERIS_TYPE = 0
CLASSIFICATION_TYPE = U
NORAD_CAT_ID   = 270340
ELEMENT_SET_NO = 999
REV_AT_EPOCH   = 22189
BSTAR          = .87204785E-3
MEAN_MOTION_DOT = .1004E-4
MEAN_MOTION_DDOT = 0

CCSDS_OMM_VERS = 2.0
CREATION_DATE  = 
ORIGINATOR     = 

OBJECT_NAME    = UNKNOWN
OBJECT_ID      = 
CENTER_NAME    = EARTH
REF_FRAME      = TEME
TIME_SYSTEM    = UTC
MEAN_ELEMENT_THEORY = SGP/SGP4

EPOCH          = 2025-11-02T12:15:25.972128
MEAN_MOTION    = 12.01773243
ECCENTRICITY   = .0905533
INCLINATION    = 83.2250
RA_OF_ASC_NODE = 313.6560
ARG_OF_PERICENTER = 148.4170
MEAN_ANOMALY   = 217.4667

EPHEMERIS_TYPE = 0
CLASSIFICATION_TYPE = U
NORAD_CAT_ID   = 270341
ELEMENT_SET_NO = 999
REV_AT_EPOCH   = 18488
BSTAR          = -.31220904E-2
MEAN_MOTION_DOT = -.853E-5
MEAN_MOTION_DDOT = 0

CCSDS_OMM_VERS = 2.0
CREATION_DATE  = 
ORIGINATOR     = 

OBJECT_NAME    = UNKNOWN
OBJECT_ID      = 
CENTER_NAME    = EARTH
REF_FRAME      = TEME
TIME_SYSTEM    = UTC
MEAN_ELEMENT_THEORY = SGP/SGP4

EPOCH          = 2025-11-03T11:20:50.994816
MEAN_MOTION    = 14.20039057
ECCENTRICITY   = .01046057
INCLINATION    = 98.6808
RA_OF_ASC_NODE = 214.4808
ARG_OF_PERICENTER = 34.0320
MEAN_ANOMALY   = 326.7507

EPHEMERIS_TYPE = 0
CLASSIFICATION_TYPE = U
NORAD_CAT_ID   = 270342
ELEMENT_SET_NO = 999
REV_AT_EPOCH   = 21701
BSTAR          = .29054357E-2
MEAN_MOTION_DOT = .6495E-4
MEAN_MOTION_DDOT = 0

CCSDS_OMM_VERS = 2.0
CREATION_DATE  = 
ORIGINATOR     = 

OBJECT_NAME    = UNKNOWN
OBJECT_ID      = 
CENTER_NAME    = EARTH
REF_FRAME      = TEME
TIME_SYSTEM    = UTC
MEAN_ELEMENT_THEORY = SGP/SGP4

EPOCH          = 2025-10-13T05:51:25.468992
MEAN_MOTION    = 12.45232880
ECCENTRICITY   = .07088981
INCLINATION    = 83.4080
RA_OF_ASC_NODE = 118.8095
ARG_OF_PERICENTER = 120.9782
MEAN_ANOMALY   = 246.2922

EPHEMERIS_TYPE = 0
CLASSIFICATION_TYPE = U
NORAD_CAT_ID   = 270343
ELEMENT_SET_NO = 999
REV_AT_EPOCH   = 18651
BSTAR          = .18784258E-2
MEAN_MOTION_DOT = .677E-5
MEAN_MOTION_DDOT = 0

